NORAD_CAT_ID,OBJECT_NAME,OBJECT_TYPE,EPOCH,MEAN_MOTION,ECCENTRICITY,INCLINATION,RA_OF_ASC_NODE,ARG_OF_PERICENTER,MEAN_ANOMALY,BSTAR,MEAN_MOTION_DOT,MEAN_MOTION_DDOT,TLE_LINE0,TLE_LINE1,TLE_LINE2,SEMIMAJOR_AXIS,PERIOD,APOGEE,PERIGEE,DECAYED
54063.0,STARLINK-5225,PAYLOAD,2023-05-26 12:07:07,15.08847447,0.0001243,53.2157,234.8615,86.5541,273.5593,-1.1943e-05,-4.78e-06,0.0,0 STARLINK-5225,1 54063U 22136N   23146.50495058 -.00000478  00000-0 -11943-4 0  9997,2 54063  53.2157 234.8615 0001243  86.5541 273.5593 15.08847447 33133,6917.858,95.437,540.583,538.863,0.0
54063.0,STARLINK-5225,PAYLOAD,2023-05-27 10:22:32,15.08830825,0.0001123,53.2144,230.6988,88.7235,271.3885,0.00024073,3.545e-05,0.0,0 STARLINK-5225,1 54063U 22136N   23147.43232181  .00003545  00000-0  24073-3 0  9999,2 54063  53.2144 230.6988 0001123  88.7235 271.3885 15.08830825 33757,6917.908,95.438,540.55,538.997,0.0
54063.0,STARLINK-5225,PAYLOAD,2023-05-27 11:57:55,15.08834103,0.0001117,53.2146,230.4005,93.2204,266.8915,0.00021814,3.185e-05,0.0,0 STARLINK-5225,1 54063U 22136N   23147.49856049  .00003185  00000-0  21814-3 0  9990,2 54063  53.2146 230.4005 0001117  93.2204 266.8915 15.08834103 33281,6917.898,95.438,540.536,538.991,0.0
54063.0,STARLINK-5225,PAYLOAD,2023-05-28 05:27:10,15.08841165,0.0001152,53.2144,227.1296,92.3931,267.7193,0.0001139,1.525e-05,0.0,0 STARLINK-5225,1 54063U 22136N   23148.22719924  .00001525  00000-0  11390-3 0  9996,2 54063  53.2144 227.1296 0001152  92.3931 267.7193 15.08841165 33396,6917.877,95.437,540.539,538.945,0.0
54063.0,STARLINK-5225,PAYLOAD,2023-05-28 11:48:42,15.08844925,0.0001155,53.2144,225.9403,92.0985,268.0139,0.00015661,2.206e-05,0.0,0 STARLINK-5225,1 54063U 22136N   23148.49215714  .00002206  00000-0  15661-3 0  9995,2 54063  53.2144 225.9403 0001155  92.0985 268.0139 15.08844925 33910,6917.865,95.437,540.529,538.931,0.0
54063.0,STARLINK-5225,PAYLOAD,2023-05-29 10:04:06,15.0883896,0.0001077,53.2145,221.7779,87.2599,272.8516,0.00024147,3.557e-05,0.0,0 STARLINK-5225,1 54063U 22136N   23149.41951966  .00003557  00000-0  24147-3 0  9993,2 54063  53.2145 221.7779 0001077  87.2599 272.8516 15.08838960 34051,6917.884,95.438,540.494,539.004,0.0
54063.0,STARLINK-5225,PAYLOAD,2023-05-29 11:39:29,15.08844529,0.0001119,53.2145,221.4805,87.0112,273.1009,0.00012253,1.663e-05,0.0,0 STARLINK-5225,1 54063U 22136N   23149.48575611  .00001663  00000-0  12253-3 0  9990,2 54063  53.2145 221.4805 0001119  87.0112 273.1009 15.08844529 33580,6917.867,95.437,540.506,538.957,0.0
54063.0,STARLINK-5225,PAYLOAD,2023-05-29 14:50:15,15.08846669,0.0001112,53.2153,220.8851,91.8318,268.2802,0.00012975,1.778e-05,0.0,0 STARLINK-5225,1 54063U 22136N   23149.61823296  .00001778  00000-0  12975-3 0  9998,2 54063  53.2153 220.8851 0001112  91.8318 268.2802 15.08846669 34086,6917.86,95.437,540.494,538.956,0.0
54063.0,STARLINK-5225,PAYLOAD,2023-05-29 21:11:48,15.08841341,0.0001063,53.2157,219.6958,84.156,275.9553,6.0834e-05,6.81e-06,0.0,0 STARLINK-5225,1 54063U 22136N   23149.88319770  .00000681  00000-0  60834-4 0  9994,2 54063  53.2157 219.6958 0001063  84.1560 275.9553 15.08841341 33644,6917.876,95.437,540.477,539.006,0.0
54063.0,STARLINK-5225,PAYLOAD,2023-05-30 05:08:44,15.08833439,0.0001262,53.2151,218.2098,95.9951,264.1185,1.6958e-05,-1.8e-07,0.0,0 STARLINK-5225,1 54063U 22136N   23150.21440515 -.00000018  00000-0  16958-4 0  9998,2 54063  53.2151 218.2098 0001262  95.9951 264.1185 15.08833439 34172,6917.9,95.438,540.638,538.892,0.0
54063.0,STARLINK-5225,PAYLOAD,2023-05-30 11:30:17,15.08831765,0.0001125,53.2158,217.0182,99.8905,260.2214,-4.8541e-05,-1.06e-05,0.0,0 STARLINK-5225,1 54063U 22136N   23150.47936798 -.00001060  00000-0 -48541-4 0  9991,2 54063  53.2158 217.0182 0001125  99.8905 260.2214 15.08831765 33731,6917.906,95.438,540.549,538.992,0.0
54063.0,STARLINK-5225,PAYLOAD,2023-05-30 21:02:35,15.08835459,0.0001065,53.2155,215.2366,91.1989,268.9125,8.4932e-06,-1.53e-06,0.0,0 STARLINK-5225,1 54063U 22136N   23150.87680517 -.00000153  00000-0  84932-5 0  9996,2 54063  53.2155 215.2366 0001065  91.1989 268.9125 15.08835459 33798,6917.894,95.438,540.496,539.023,0.0
54063.0,STARLINK-5225,PAYLOAD,2023-05-31 03:24:08,15.08844342,9.98e-05,53.216,214.0458,89.9578,270.1529,4.5267e-05,4.33e-06,0.0,0 STARLINK-5225,1 54063U 22136N   23151.14175973  .00000433  00000-0  45267-4 0  9999,2 54063  53.2160 214.0458 0000998  89.9578 270.1529 15.08844342 34319,6917.867,95.437,540.423,539.042,0.0
54063.0,STARLINK-5225,PAYLOAD,2023-05-31 09:45:40,15.08847615,0.0001,53.2158,212.8566,89.3811,270.7296,7.6149e-05,9.25e-06,0.0,0 STARLINK-5225,1 54063U 22136N   23151.40671646  .00000925  00000-0  76149-4 0  9995,2 54063  53.2158 212.8566 0001000  89.3811 270.7296 15.08847615 33874,6917.857,95.437,540.414,539.03,0.0
54063.0,STARLINK-5225,PAYLOAD,2023-05-31 14:31:49,15.08851268,0.0001013,53.2158,211.9642,93.2772,266.8336,9.7748e-05,1.269e-05,0.0,0 STARLINK-5225,1 54063U 22136N   23151.60543288  .00001269  00000-0  97748-4 0  9997,2 54063  53.2158 211.9642 0001013  93.2772 266.8336 15.08851268 34380,6917.846,95.437,540.412,539.01,0.0
54063.0,STARLINK-5225,PAYLOAD,2023-05-31 20:53:22,15.08844805,9.46e-05,53.2154,210.7761,88.4771,271.633,3.1614e-05,2.15e-06,0.0,0 STARLINK-5225,1 54063U 22136N   23151.87039853  .00000215  00000-0  31614-4 0  9994,2 54063  53.2154 210.7761 0000946  88.4771 271.6330 15.08844805 33942,6917.866,95.437,540.385,539.076,0.0
54063.0,STARLINK-5225,PAYLOAD,2023-06-01 09:36:28,15.08833645,0.0001068,53.2149,208.3959,80.5164,279.5949,0.00011379,1.523e-05,0.0,0 STARLINK-5225,1 54063U 22136N   23152.40032820  .00001523  00000-0  11379-3 0  9999,2 54063  53.2149 208.3959 0001068  80.5164 279.5949 15.08833645 34026,6917.9,95.438,540.504,539.026,0.0
54063.0,STARLINK-5225,PAYLOAD,2023-06-01 20:44:09,15.0883977,0.0001131,53.2144,206.3145,80.8223,279.2897,9.3383e-05,1.199e-05,0.0,0 STARLINK-5225,1 54063U 22136N   23152.86400439  .00001199  00000-0  93383-4 0  9999,2 54063  53.2144 206.3145 0001131  80.8223 279.2897 15.08839770 34570,6917.881,95.438,540.529,538.964,0.0
54063.0,STARLINK-5225,PAYLOAD,2023-06-02 11:02:38,15.08844106,0.0001184,53.215,203.6387,85.7396,274.3731,9.9492e-05,1.296e-05,0.0,0 STARLINK-5225,1 54063U 22136N   23153.46016320  .00001296  00000-0  99492-4 0  9993,2 54063  53.2150 203.6387 0001184  85.7396 274.3731 15.08844106 34187,6917.868,95.437,540.552,538.914,0.0
54063.0,STARLINK-5225,PAYLOAD,2023-06-03 02:56:29,15.08839688,0.0001242,53.2148,200.6651,84.1389,275.9744,0.00016296,2.307e-05,0.0,0 STARLINK-5225,1 54063U 22136N   23154.12256710  .00002307  00000-0  16296-3 0  9990,2 54063  53.2148 200.6651 0001242  84.1389 275.9744 15.08839688 34769,6917.881,95.438,540.606,538.887,0.0
54063.0,STARLINK-5225,PAYLOAD,2023-06-03 12:28:48,15.08840997,0.0001224,53.2146,198.8805,84.0668,276.0464,0.00013705,1.894e-05,0.0,0 STARLINK-5225,1 54063U 22136N   23154.52000701  .00001894  00000-0  13705-3 0  9993,2 54063  53.2146 198.8805 0001224  84.0668 276.0464 15.08840997 34345,6917.877,95.437,540.589,538.896,0.0
54063.0,STARLINK-5225,PAYLOAD,2023-06-03 20:25:44,15.08841589,0.0001207,53.2144,197.3937,83.5347,276.5782,0.0001349,1.86e-05,0.0,0 STARLINK-5225,1 54063U 22136N   23154.85120701  .00001860  00000-0  13490-3 0  9996,2 54063  53.2144 197.3937 0001207  83.5347 276.5782 15.08841589 34393,6917.876,95.437,540.576,538.906,0.0
54063.0,STARLINK-5225,PAYLOAD,2023-06-04 09:08:48,15.0884636,0.0001074,53.2151,195.0139,89.3268,270.7847,0.00011627,1.563e-05,0.0,0 STARLINK-5225,1 54063U 22136N   23155.38112227  .00001563  00000-0  11627-3 0  9999,2 54063  53.2151 195.0139 0001074  89.3268 270.7847 15.08846360 34950,6917.861,95.437,540.469,538.983,0.0
54063.0,STARLINK-5225,PAYLOAD,2023-06-05 02:38:03,15.08840881,0.0001045,53.2151,191.7427,89.0334,271.0778,7.9399e-05,9.76e-06,0.0,0 STARLINK-5225,1 54063U 22136N   23156.10976492  .00000976  00000-0  79399-4 0  9990,2 54063  53.2151 191.7427 0001045  89.0334 271.0778 15.08840881 35064,6917.878,95.437,540.466,539.02,0.0
54063.0,STARLINK-5225,PAYLOAD,2023-06-05 08:59:36,15.08841941,0.0001056,53.2151,190.5532,88.3701,271.7412,7.5232e-05,9.1e-06,0.0,0 STARLINK-5225,1 54063U 22136N   23156.37472353  .00000910  00000-0  75232-4 0  9996,2 54063  53.2151 190.5532 0001056  88.3701 271.7412 15.08841941 34621,6917.874,95.437,540.47,539.009,0.0
54063.0,STARLINK-5225,PAYLOAD,2023-06-06 02:28:51,15.08835027,0.0001076,53.2149,187.2826,85.5581,274.5534,3.722e-06,-2.29e-06,0.0,0 STARLINK-5225,1 54063U 22136N   23157.10337061 -.00000229  00000-0  37220-5 0  9994,2 54063  53.2149 187.2826 0001076  85.5581 274.5534 15.08835027 35214,6917.896,95.438,540.505,539.016,0.0
54063.0,STARLINK-5225,PAYLOAD,2023-06-06 12:01:10,15.08834068,0.0001074,53.215,185.4987,81.3971,278.7143,-2.1932e-05,-6.37e-06,0.0,0 STARLINK-5225,1 54063U 22136N   23157.50081255 -.00000637  00000-0 -21932-4 0  9995,2 54063  53.2150 185.4987 0001074  81.3971 278.7143 15.08834068 34797,6917.899,95.438,540.507,539.021,0.0
54063.0,STARLINK-5225,PAYLOAD,2023-06-07 02:19:41,15.08734758,0.0001663,53.2172,182.8256,99.5217,260.5963,0.00098452,0.0001537,0.0,0 STARLINK-5225,1 54063U 22136N   23158.09700603  .00015370  00000-0  98452-3 0  9993,2 54063  53.2172 182.8256 0001663  99.5217 260.5963 15.08734758 35367,6918.202,95.444,541.218,538.917,0.0
54063.0,STARLINK-5225,PAYLOAD,2023-06-07 10:16:35,15.08825473,0.0001001,53.2152,181.3373,71.3312,288.7789,-4.3771e-05,-9.84e-06,0.0,0 STARLINK-5225,1 54063U 22136N   23158.42818832 -.00000984  00000-0 -43771-4 0  9996,2 54063  53.2152 181.3373 0001001  71.3312 288.7789 15.08825473 35418,6917.925,95.438,540.482,539.097,0.0
54063.0,STARLINK-5225,PAYLOAD,2023-06-07 11:51:58,15.08826535,9.73e-05,53.2147,181.0376,74.9083,285.2017,-2.7814e-05,-7.3e-06,0.0,0 STARLINK-5225,1 54063U 22136N   23158.49442729 -.00000730  00000-0 -27814-4 0  9990,2 54063  53.2147 181.0376 0000973  74.9083 285.2017 15.08826535 34946,6917.922,95.438,540.46,539.113,0.0
